OBJECT_NAME,OBJECT_ID,EPOCH,MEAN_MOTION,ECCENTRICITY,INCLINATION,RA_OF_ASC_NODE,ARG_OF_PERICENTER,MEAN_ANOMALY,EPHEMERIS_TYPE,CLASSIFICATION_TYPE,NORAD_CAT_ID,ELEMENT_SET_NO,REV_AT_EPOCH,BSTAR,MEAN_MOTION_DOT,MEAN_MOTION_DDOT
EYESAT A (AO-27),1993-061C,2026-06-14T18:17:43.698912,14.30941647,.0009518,98.6881,233.1767,105.9918,254.2314,0,U,22825,999,70665,.48802E-4,.84E-6,0
ITAMSAT (IO-26),1993-061D,2026-06-14T11:06:28.948320,14.31368412,.00100975,98.6828,232.7945,92.1193,268.1146,0,U,22826,999,70692,.48465703E-4,.84E-6,0
RADIO ROSTO (RS15),1994-085A,2026-06-14T19:26:29.592672,11.27583512,.0155878,64.8180,307.0607,4.3159,355.9069,0,U,23439,999,29563,-.21367E-3,-.5E-6,0
JAS-2 (FO-29),1996-046B,2026-06-14T19:08:10.351392,13.53274198,.0350875,98.5241,14.9969,102.6170,261.4438,0,U,24278,999,47284,.49334E-4,.17E-6,0
FORTE,1997-047A,2026-06-14T20:28:40.900224,14.27944309,.0024615,69.9540,19.2933,280.2260,79.6087,0,U,24920,999,49835,.7279E-4,.123E-5,0
TECHSAT 1B (GO-32),1998-043D,2026-06-14T17:54:46.425024,14.24427952,.000092,99.0067,158.4434,168.4150,191.7050,0,U,25397,999,45098,.36985E-4,.39E-6,0
ISS (ZARYA),1998-067A,2026-06-14T19:16:03.749088,15.49231655,.0004856,51.6336,311.8940,186.3522,173.7405,0,U,25544,999,57138,.16005E-3,.8449E-4,0
IMAGE,2000-017A,2026-06-11T08:17:58.695072,1.68665984,.7436383,94.2241,315.2958,288.4674,8.8959,0,U,26113,999,16140,.22926E-1,.11E-6,0
CLUSTER II-FM7 (SAMBA),2000-041A,2026-06-17T03:20:03.974496,0.44866443,.90540571,149.9162,50.9861,268.1289,359.6411,0,U,26410,999,2030,0,.13374E-3,0
CLUSTER II-FM8 (TANGO),2000-045B,2026-06-12T22:28:41.433888,0.44416667,.9053813,150.1459,51.3061,268.2487,3.0095,0,U,26464,999,2029,0,.661E-4,0
ODIN,2001-007A,2026-06-14T14:48:47.172960,15.75011421,.0006744,97.3841,206.3960,145.8627,214.3072,0,U,26702,999,38899,.10291E-2,.155164E-2,0
OMNI-M1,2001-026A,2026-06-14T04:05:48.391872,3.92401509,.00141634,44.8314,245.9594,52.8796,307.3086,0,U,26857,999,20545,0,.5E-7,0
PCSAT (NO-44),2001-043C,2026-06-14T15:28:37.669152,14.31955289,.000607,67.0507,250.8474,264.5795,95.4615,0,U,26931,999,29008,.66722E-4,.96E-6,0
PROBA-1,2001-049B,2026-06-14T21:06:59.241312,15.07486788,.0056303,97.9598,174.3313,129.5131,231.1093,0,U,26958,999,34327,.81995E-4,.1217E-4,0
SAUDISAT 1C (SO-50),2002-058C,2026-06-14T07:45:18.812160,14.83041320,.00753336,64.5509,137.8468,263.0043,96.2490,0,U,27607,999,26403,.12618747E-3,.923E-5,0
CORIOLIS,2003-001A,2026-06-14T20:55:26.433408,14.19944215,.0013249,98.7125,172.7919,215.8097,144.2192,0,U,27640,999,21389,.57447E-4,.78E-6,0
CUTE-1 (CO-55),2003-031E,2026-06-14T13:53:01.885056,14.24334256,.0009356,98.6736,174.1701,185.5498,174.5579,0,U,27844,999,19130,.12698E-3,.25E-5,0
CUBESAT XI-IV (CO-57),2003-031J,2026-06-14T18:38:09.009888,14.23619629,.0008869,98.6767,174.0803,204.4357,155.6402,0,U,27848,999,19103,.10839E-3,.203E-5,0
MOZHAETS 4 (RS22),2003-042A,2026-06-14T20:20:11.618880,14.73465637,.0009949,98.3465,350.1404,278.2594,206.6264,0,U,27939,999,21520,.21705E-3,.1356E-4,0
