EYESAT A (AO-27)        
1 22825U 93061C   26165.76231133  .00000084  00000+0  48802-4 0  9991
2 22825  98.6881 233.1767 0009518 105.9918 254.2314 14.30941647706650
ITAMSAT (IO-26)         
1 22826U 93061D   26165.46283505  .00000084  00000+0  48466-4 0  9995
2 22826  98.6828 232.7945 0010097  92.1193 268.1146 14.31368412706922
RADIO ROSTO (RS15)      
1 23439U 94085A   26165.81006473 -.00000050  00000+0 -21367-3 0  9994
2 23439  64.8180 307.0607 0155878   4.3159 355.9069 11.27583512295636
JAS-2 (FO-29)           
1 24278U 96046B   26165.79734203  .00000017  00000+0  49334-4 0  9997
2 24278  98.5241  14.9969 0350875 102.6170 261.4438 13.53274198472843
FORTE                   
1 24920U 97047A   26165.85325116  .00000123  00000+0  72790-4 0  9999
2 24920  69.9540  19.2933 0024615 280.2260  79.6087 14.27944309498356
TECHSAT 1B (GO-32)      
1 25397U 98043D   26165.74637066  .00000039  00000+0  36985-4 0  9995
2 25397  99.0067 158.4434 0000920 168.4150 191.7050 14.24427952450983
ISS (ZARYA)             
1 25544U 98067A   26165.80282117  .00008449  00000+0  16005-3 0  9998
2 25544  51.6336 311.8940 0004856 186.3522 173.7405 15.49231655571384
IMAGE                   
1 26113U 00017A   26162.34581823  .00000011  00000+0  22926-1 0  9995
2 26113  94.2241 315.2958 7436383 288.4674   8.8959  1.68665984161407
CLUSTER II-FM7 (SAMBA)  
1 26410U 00041A   26168.13893489  .00013374  00000+0  00000+0 0  9992
2 26410 149.9162  50.9861 9054057 268.1289 359.6411  0.44866443 20305
CLUSTER II-FM8 (TANGO)  
1 26464U 00045B   26163.93659067  .00006610  00000+0  00000+0 0  9995
2 26464 150.1459  51.3061 9053813 268.2487   3.0095  0.44416667 20299
ODIN                    
1 26702U 01007A   26165.61721265  .00155164  00000+0  10291-2 0  9991
2 26702  97.3841 206.3960 0006744 145.8627 214.3072 15.75011421388994
OMNI-M1                 
1 26857U 01026A   26165.17069898  .00000005  00000+0  00000+0 0  9998
2 26857  44.8314 245.9594 0014163  52.8796 307.3086  3.92401509205450
PCSAT (NO-44)           
1 26931U 01043C   26165.64488043  .00000096  00000+0  66722-4 0  9997
2 26931  67.0507 250.8474 0006070 264.5795  95.4615 14.31955289290085
PROBA-1                 
1 26958U 01049B   26165.87985233  .00001217  00000+0  81995-4 0  9995
2 26958  97.9598 174.3313 0056303 129.5131 231.1093 15.07486788343272
SAUDISAT 1C (SO-50)     
1 27607U 02058C   26165.32313440  .00000923  00000+0  12619-3 0  9992
2 27607  64.5509 137.8468 0075333 263.0043  96.2490 14.83041320264030
CORIOLIS                
1 27640U 03001A   26165.87183372  .00000078  00000+0  57447-4 0  9997
2 27640  98.7125 172.7919 0013249 215.8097 144.2192 14.19944215213896
CUTE-1 (CO-55)          
1 27844U 03031E   26165.57849404  .00000250  00000+0  12698-3 0  9998
2 27844  98.6736 174.1701 0009356 185.5498 174.5579 14.24334256191306
CUBESAT XI-IV (CO-57)   
1 27848U 03031J   26165.77649317  .00000203  00000+0  10839-3 0  9998
2 27848  98.6767 174.0803 0008869 204.4357 155.6402 14.23619629191033
MOZHAETS 4 (RS22)       
1 27939U 03042A   26165.84735670  .00001356  00000+0  21705-3 0  9991
2 27939  98.3465 350.1404 0009949 278.2594 206.6264 14.73465637215204
